{
  "type": "FeatureCollection",
  "metadata": {
    "schemaVersion": "2.0.0",
    "datasetId": "jiangxi-official-protected-heritage-map",
    "sourceDatasets": [
      {
        "datasetId": "jiangxi-provincial-protected-heritage-pilot",
        "sourcePath": "data/jiangxi-provincial-heritage-pilot.json",
        "recordCount": 10
      },
      {
        "datasetId": "xinyu-official-heritage-records",
        "sourcePath": "data/xinyu-official-heritage-records.json",
        "recordCount": 7
      }
    ],
    "publicLocationSource": "data/official-protected-heritage-public-locations.json",
    "sourceRecordCount": 17,
    "featureCount": 7,
    "excludedRecordCount": 10,
    "generationStatus": "valid",
    "deterministicSourceOrder": [
      "jiangxi-provincial-protected-heritage-pilot",
      "xinyu-official-heritage-records"
    ],
    "geometryProvenance": "Alex's Photo Board reviewed public-location decision"
  },
  "features": [
    {
      "type": "Feature",
      "id": "JX-XY-NCH-007",
      "properties": {
        "recordId": "JX-XY-NCH-007",
        "sourceDatasetId": "xinyu-official-heritage-records",
        "officialNameZh": "水西红三军团指挥部旧址",
        "projectNameEn": "Former Site of the Shuixi Red Army Third Corps Headquarters",
        "projectEnglishStatus": "Alex's Photo Board project interpretation",
        "protectionLevelZh": "全国重点文物保护单位",
        "officialCategoryZh": "近现代重要史迹",
        "officialLocationTextZh": "高新区水西镇沙陂村",
        "sourceTitleZh": "新余市市级以上文物保护单位名录（2025年）",
        "sourceIssuerZh": "新余市文化广电旅游局",
        "sourceUrl": "https://wxj.xinyu.gov.cn/wxj/qtygwjfsh/2025-12/26/content_8c20af69612748c0ac4570ce91627770.shtml",
        "sourceAccessedDate": "2026-07-24",
        "identityConfidence": "confirmed",
        "siteLocationConfidence": "High",
        "locationEvidenceConfidence": "Medium",
        "displayLocationType": "site-point",
        "locationPrecision": "approximate",
        "publicLocationMeaning": "heritage-feature",
        "markerClass": "reviewed",
        "estimatedUncertaintyMeters": 100,
        "generalizationRadiusMeters": null,
        "publicationLocationPolicy": "approximate",
        "publicLocationNote": "Project-reviewed reference location based on the official record, mapped-provider evidence and documented project digitization. It identifies the mapped heritage feature but is not an authority-supplied coordinate, surveyed heritage extent, building footprint, legal protection boundary or guaranteed visitor entrance. Estimated horizontal uncertainty is approximately 100 metres.",
        "coordinateReferenceSystem": "WGS84",
        "projectLocationProvenance": "Alex's Photo Board reviewed public-location decision",
        "geometryMeaning": "provider-located-project-reviewed-reference-point",
        "representationStatus": "project-reviewed-interpretation",
        "geometrySourceType": "project-reviewed-digitization",
        "geometrySourceLabel": "Project-reviewed provider-located reference Point",
        "geometrySourceUrl": "https://www.amap.com/place/B0IDTHR05Y",
        "geometryReviewedAt": "2026-07-31",
        "geometryReviewNotes": "Project-reviewed reference location based on the official record, mapped-provider evidence and documented project digitization. It identifies the mapped heritage feature but is not an authority-supplied coordinate, surveyed heritage extent, building footprint, legal protection boundary or guaranteed visitor entrance. Estimated horizontal uncertainty is approximately 100 metres.",
        "geometryPrecision": "approximate",
        "horizontalUncertaintyMetres": 100
      },
      "geometry": {
        "type": "Point",
        "coordinates": [
          115.011333,
          27.805882
        ]
      }
    },
    {
      "type": "Feature",
      "id": "JX-XY-PCH-001",
      "properties": {
        "recordId": "JX-XY-PCH-001",
        "sourceDatasetId": "xinyu-official-heritage-records",
        "officialNameZh": "新余孔庙",
        "projectNameEn": "Xinyu Confucian Temple",
        "projectEnglishStatus": "Alex's Photo Board project interpretation",
        "protectionLevelZh": "省级文物保护单位",
        "officialCategoryZh": "古建筑",
        "officialLocationTextZh": "渝水区城南办事处魁星路",
        "sourceTitleZh": "新余市市级以上文物保护单位名录（2025年）",
        "sourceIssuerZh": "新余市文化广电旅游局",
        "sourceUrl": "https://wxj.xinyu.gov.cn/wxj/qtygwjfsh/2025-12/26/content_8c20af69612748c0ac4570ce91627770.shtml",
        "sourceAccessedDate": "2026-07-24",
        "identityConfidence": "confirmed",
        "siteLocationConfidence": "Medium",
        "locationEvidenceConfidence": "Medium",
        "displayLocationType": "compound-centroid",
        "locationPrecision": "approximate",
        "publicLocationMeaning": "heritage-compound-centre",
        "markerClass": "reviewed",
        "estimatedUncertaintyMeters": 75,
        "generalizationRadiusMeters": null,
        "publicationLocationPolicy": "approximate",
        "publicLocationNote": "This project-produced point indicates the approximate centre of the confirmed Xinyu Confucian Temple compound. It is not an official designation coordinate, exact building location or legal boundary.",
        "coordinateReferenceSystem": "WGS84",
        "projectLocationProvenance": "Alex's Photo Board reviewed public-location decision"
      },
      "geometry": {
        "type": "Point",
        "coordinates": [
          114.937042,
          27.798123
        ]
      }
    },
    {
      "type": "Feature",
      "id": "JX-XY-PCH-008",
      "properties": {
        "recordId": "JX-XY-PCH-008",
        "sourceDatasetId": "xinyu-official-heritage-records",
        "officialNameZh": "昼锦堂",
        "projectNameEn": "Zhoujin Hall",
        "projectEnglishStatus": "Alex's Photo Board project interpretation",
        "protectionLevelZh": "省级文物保护单位",
        "officialCategoryZh": "古建筑",
        "officialLocationTextZh": "仙女湖区观巢镇汉泉村",
        "sourceTitleZh": "新余市市级以上文物保护单位名录（2025年）",
        "sourceIssuerZh": "新余市文化广电旅游局",
        "sourceUrl": "https://wxj.xinyu.gov.cn/wxj/qtygwjfsh/2025-12/26/content_8c20af69612748c0ac4570ce91627770.shtml",
        "sourceAccessedDate": "2026-07-24",
        "identityConfidence": "confirmed",
        "siteLocationConfidence": "Medium",
        "locationEvidenceConfidence": "Medium",
        "displayLocationType": "visitor-reference-point",
        "locationPrecision": "approximate",
        "publicLocationMeaning": "visitor-reference",
        "markerClass": "reviewed",
        "estimatedUncertaintyMeters": 125,
        "generalizationRadiusMeters": null,
        "publicationLocationPolicy": "approximate",
        "publicLocationNote": "This marker shows a public visitor reference associated with the official heritage record. It may not coincide with the protected feature itself. The location was produced by Alex’s Photo Board and is not an official designation coordinate or legal boundary.",
        "coordinateReferenceSystem": "WGS84",
        "projectLocationProvenance": "Alex's Photo Board reviewed public-location decision"
      },
      "geometry": {
        "type": "Point",
        "coordinates": [
          114.840705,
          27.854836
        ]
      }
    },
    {
      "type": "Feature",
      "id": "JX-XY-PCH-009",
      "properties": {
        "recordId": "JX-XY-PCH-009",
        "sourceDatasetId": "xinyu-official-heritage-records",
        "officialNameZh": "蓉泉桥",
        "projectNameEn": "Rongquan Bridge",
        "projectEnglishStatus": "Alex's Photo Board project interpretation",
        "protectionLevelZh": "省级文物保护单位",
        "officialCategoryZh": "古建筑",
        "officialLocationTextZh": "渝水区水北镇排江村",
        "sourceTitleZh": "新余市市级以上文物保护单位名录（2025年）",
        "sourceIssuerZh": "新余市文化广电旅游局",
        "sourceUrl": "https://wxj.xinyu.gov.cn/wxj/qtygwjfsh/2025-12/26/content_8c20af69612748c0ac4570ce91627770.shtml",
        "sourceAccessedDate": "2026-07-24",
        "identityConfidence": "confirmed",
        "siteLocationConfidence": "High",
        "locationEvidenceConfidence": "Medium",
        "displayLocationType": "site-point",
        "locationPrecision": "approximate",
        "publicLocationMeaning": "heritage-feature",
        "markerClass": "reviewed",
        "estimatedUncertaintyMeters": 75,
        "generalizationRadiusMeters": null,
        "publicationLocationPolicy": "approximate",
        "publicLocationNote": "This official heritage record has a project-reviewed approximate feature location. The displayed point was produced by Alex’s Photo Board; it is not an official designation coordinate or legal boundary.",
        "coordinateReferenceSystem": "WGS84",
        "projectLocationProvenance": "Alex's Photo Board reviewed public-location decision"
      },
      "geometry": {
        "type": "Point",
        "coordinates": [
          115.047377,
          28.074011
        ]
      }
    },
    {
      "type": "Feature",
      "id": "JX-XY-PCH-014",
      "properties": {
        "recordId": "JX-XY-PCH-014",
        "sourceDatasetId": "xinyu-official-heritage-records",
        "officialNameZh": "傅抱石故居",
        "projectNameEn": "Fu Baoshi Former Residence",
        "projectEnglishStatus": "Alex's Photo Board project interpretation",
        "protectionLevelZh": "省级文物保护单位",
        "officialCategoryZh": "近现代重要史迹",
        "officialLocationTextZh": "渝水区罗坊镇章塘村",
        "sourceTitleZh": "新余市市级以上文物保护单位名录（2025年）",
        "sourceIssuerZh": "新余市文化广电旅游局",
        "sourceUrl": "https://wxj.xinyu.gov.cn/wxj/qtygwjfsh/2025-12/26/content_8c20af69612748c0ac4570ce91627770.shtml",
        "sourceAccessedDate": "2026-07-24",
        "identityConfidence": "confirmed",
        "siteLocationConfidence": "Medium",
        "locationEvidenceConfidence": "Medium",
        "displayLocationType": "visitor-reference-point",
        "locationPrecision": "approximate",
        "publicLocationMeaning": "visitor-reference",
        "markerClass": "reviewed",
        "estimatedUncertaintyMeters": 100,
        "generalizationRadiusMeters": null,
        "publicationLocationPolicy": "approximate",
        "publicLocationNote": "This marker shows a public visitor reference associated with the official heritage record. It may not coincide with the protected feature itself. The location was produced by Alex’s Photo Board and is not an official designation coordinate or legal boundary.",
        "coordinateReferenceSystem": "WGS84",
        "projectLocationProvenance": "Alex's Photo Board reviewed public-location decision"
      },
      "geometry": {
        "type": "Point",
        "coordinates": [
          115.09312,
          27.911966
        ]
      }
    },
    {
      "type": "Feature",
      "id": "JX-XY-PCH-016",
      "properties": {
        "recordId": "JX-XY-PCH-016",
        "sourceDatasetId": "xinyu-official-heritage-records",
        "officialNameZh": "上海劳动妇女战地服务团旧址",
        "projectNameEn": "Former Site of the Shanghai Labour Women's Battlefield Service Corps",
        "projectEnglishStatus": "Alex's Photo Board project interpretation",
        "protectionLevelZh": "省级文物保护单位",
        "officialCategoryZh": "近现代重要史迹",
        "officialLocationTextZh": "渝水区珠珊镇沙头村",
        "sourceTitleZh": "新余市市级以上文物保护单位名录（2025年）",
        "sourceIssuerZh": "新余市文化广电旅游局",
        "sourceUrl": "https://wxj.xinyu.gov.cn/wxj/qtygwjfsh/2025-12/26/content_8c20af69612748c0ac4570ce91627770.shtml",
        "sourceAccessedDate": "2026-07-24",
        "identityConfidence": "confirmed",
        "siteLocationConfidence": "Medium",
        "locationEvidenceConfidence": "Medium",
        "displayLocationType": "visitor-reference-point",
        "locationPrecision": "approximate",
        "publicLocationMeaning": "visitor-reference",
        "markerClass": "reviewed",
        "estimatedUncertaintyMeters": 100,
        "generalizationRadiusMeters": null,
        "publicationLocationPolicy": "approximate",
        "publicLocationNote": "This marker shows a public visitor reference associated with the official heritage record. It may not coincide with the protected feature itself. The location was produced by Alex’s Photo Board and is not an official designation coordinate or legal boundary.",
        "coordinateReferenceSystem": "WGS84",
        "projectLocationProvenance": "Alex's Photo Board reviewed public-location decision"
      },
      "geometry": {
        "type": "Point",
        "coordinates": [
          114.97278,
          27.773914
        ]
      }
    },
    {
      "type": "Feature",
      "id": "JX-XY-PCH-018",
      "properties": {
        "recordId": "JX-XY-PCH-018",
        "sourceDatasetId": "xinyu-official-heritage-records",
        "officialNameZh": "下保农民暴动旧址——暴动举行地旧址",
        "projectNameEn": "Former Site of the Xiabu Peasant Uprising — Uprising Site",
        "projectEnglishStatus": "Alex's Photo Board project interpretation",
        "protectionLevelZh": "省级文物保护单位",
        "officialCategoryZh": "近现代重要史迹",
        "officialLocationTextZh": "渝水区良山镇下保村",
        "sourceTitleZh": "新余市市级以上文物保护单位名录（2025年）",
        "sourceIssuerZh": "新余市文化广电旅游局",
        "sourceUrl": "https://wxj.xinyu.gov.cn/wxj/qtygwjfsh/2025-12/26/content_8c20af69612748c0ac4570ce91627770.shtml",
        "sourceAccessedDate": "2026-07-24",
        "identityConfidence": "confirmed",
        "siteLocationConfidence": "Medium",
        "locationEvidenceConfidence": "Medium",
        "displayLocationType": "component-reference-point",
        "locationPrecision": "approximate",
        "publicLocationMeaning": "component-reference",
        "markerClass": "reviewed",
        "estimatedUncertaintyMeters": 150,
        "generalizationRadiusMeters": null,
        "publicationLocationPolicy": "approximate",
        "publicLocationNote": "This reviewed Point identifies the publicly mapped location associated only with the 暴动举行地旧址 component of 下保农民暴动旧址. It does not represent the separately listed 暴动会议地旧址 component, a building footprint, entrance, centroid, complete protected extent or official/legal boundary. Estimated horizontal uncertainty is approximately 150 metres.",
        "coordinateReferenceSystem": "WGS84",
        "projectLocationProvenance": "Alex's Photo Board reviewed public-location decision"
      },
      "geometry": {
        "type": "Point",
        "coordinates": [
          114.99557,
          27.66762
        ]
      }
    }
  ]
}
